STARLINK-38047          
1 69745U 26150G   26194.49639274  .00278620  00000+0  14028-2 0  9992
2 69745  97.2822  32.7730 0001323 107.7417 252.3995 15.80918891  3054
STARLINK-38046          
1 69746U 26150H   26194.49447119  .00295023  00000+0  14817-2 0  9990
2 69746  97.2834  32.7772 0001371 109.3815 250.7601 15.80930417  3051
STARLINK-38067          
1 69747U 26150J   26194.50001156 -.00001736  00000+0 -10783-4 0  9998
2 69747  97.2832  32.7630 0001171  72.7118 270.4304 15.75168926  3028
STARLINK-37988          
1 69748U 26150K   26194.50001156  .00032344  00000+0  21729-3 0  9997
2 69748  97.2834  32.7672 0001167  78.7742 274.3722 15.75148137  3020
STARLINK-37987          
1 69749U 26150L   26194.50001156  .00002778  00000+0  19509-4 0  9990
2 69749  97.2838  32.7784 0001452  86.5095 290.6298 15.75168916  3020
STARLINK-38037          
1 69750U 26150M   26194.48989883  .00252900  00000+0  12773-2 0  9999
2 69750  97.2837  32.7825 0001595 108.6358 251.5083 15.80915512  3052
STARLINK-38049          
1 69751U 26150N   26194.48888082  .00253516  00000+0  12801-2 0  9995
2 69751  97.2841  32.7852 0001964 106.3523 253.7961 15.80919611  3050
STARLINK-38029          
1 69752U 26150P   26194.48313019  .00236596  00000+0  11975-2 0  9999
2 69752  97.2837  32.7916 0001559  99.9937 260.1507 15.80912072  3055
STARLINK-37965          
1 69753U 26150Q   26194.50001156 -.00063336  00000+0 -42668-3 0  9995
2 69753  97.2844  32.8023 0001242  87.9983 345.1373 15.75202608  3024
STARLINK-38048          
1 69754U 26150R   26194.48276016  .00234963  00000+0  11901-2 0  9991
2 69754  97.2832  32.7919 0000995 102.0727 258.0653 15.80899314  3052
STARLINK-38006          
1 69755U 26150S   26194.48002780  .00249447  00000+0  12634-2 0  9994
2 69755  97.2840  32.7962 0000953 131.1256 229.0095 15.80863898  3050
STARLINK-38036          
1 69756U 26150T   26194.54196566  .00106803  00000+0  55228-3 0  9993
2 69756  97.2845  32.8663 0000617 124.4224 235.7102 15.80786479  3065
STARLINK-38058          
1 69757U 26150U   26194.54171241  .00158674  00000+0  81467-3 0  9994
2 69757  97.2834  32.8655 0001596 357.7901   2.3360 15.80801549  3065
STARLINK-38066          
1 69758U 26150V   26194.47826015  .00095685  00000+0  49477-3 0  9990
2 69758  97.2842  32.7995 0001509  97.9953 262.1487 15.80818002  3052
STARLINK-38035          
1 69759U 26150W   26194.54144000  .00126491  00000+0  65228-3 0  9998
2 69759  97.2844  32.8667 0000375  44.9028 315.2271 15.80792622  3068
STARLINK-38056          
1 69760U 26150X   26194.53798066  .00117746  00000+0  60778-3 0  9994
2 69760  97.2833  32.8707 0001081  84.3118 275.8274 15.80795249  3068
STARLINK-38069          
1 69761U 26150Y   26194.50001156  .00097889  00000+0  50712-3 0  9991
2 69761  97.2840  32.8414 0001435  80.0875  83.7873 15.80770654  3028
STARLINK-38019          
1 69762U 26150Z   26194.50001156 -.00001060  00000+0 -62482-5 0  9999
2 69762  97.2840  32.8265 0000554  74.7353  54.3891 15.75170283  3025
KUIPER-00258            
1 69763U 26151A   26194.44453763 -.00006745  00000+0 -18165-3 0  9991
2 69763  51.8672 188.9959 0012280 164.5620 195.5743 15.35410069  1748
KUIPER-00526            
1 69764U 26151B   26194.49686315  .00009431  00000+0  26423-3 0  9997
2 69764  51.8750 188.6050 0005901 128.1674 231.9845 15.37297052  1758
KUIPER-00558            
1 69765U 26151C   26194.50033963  .00010356  00000+0  29371-3 0  9998
2 69765  51.8752 188.6240 0007673 144.8046 215.3448 15.36790663  1758
KUIPER-00569            
1 69766U 26151D   26194.49553009  .00010058  00000+0  27973-3 0  9990
2 69766  51.8782 188.5906 0005229 131.9238 228.2195 15.37450310  1750
KUIPER-00589            
1 69767U 26151E   26194.49616559  .00010803  00000+0  30021-3 0  9997
2 69767  51.8742 188.6002 0005395 134.0083 226.1349 15.37391512  1757
KUIPER-00598            
1 69768U 26151F   26194.50873949  .00305674  00000+0  83296-2 0  9992
2 69768  51.8636 188.6781 0008379 166.2010 193.9206 15.35703367  1752
KUIPER-00604            
1 69769U 26151G   26194.49015675  .00009936  00000+0  26981-3 0  9996
2 69769  51.8785 188.5565 0002886  96.6811 263.4504 15.38214054  1756
KUIPER-00609            
1 69770U 26151H   26194.48709654  .00011615  00000+0  30961-3 0  9994
2 69770  51.8785 188.5360 0001434  45.0706 315.0397 15.38611454  1759
KUIPER-00611            
1 69771U 26151J   26194.48860642  .00016559  00000+0  43944-3 0  9997
2 69771  51.8789 188.5427 0001748  96.6626 263.4560 15.38423494  1752
KUIPER-00612            
1 69772U 26151K   26194.49231722  .00009387  00000+0  25797-3 0  9997
2 69772  51.8779 188.5727 0003817 105.4965 254.6444 15.37914868  1751
KUIPER-00614            
1 69773U 26151L   26194.49077920  .00009702  00000+0  26445-3 0  9998
2 69773  51.8797 188.5573 0002801 123.8762 236.2492 15.38128676  1756
KUIPER-00615            
1 69774U 26151M   26194.49751655  .00010257  00000+0  28723-3 0  9991
2 69774  51.8771 188.6041 0006257 141.8330 218.3101 15.37209069  1753
