OBJECT_NAME,OBJECT_ID,EPOCH,MEAN_MOTION,ECCENTRICITY,INCLINATION,RA_OF_ASC_NODE,ARG_OF_PERICENTER,MEAN_ANOMALY,EPHEMERIS_TYPE,CLASSIFICATION_TYPE,NORAD_CAT_ID,ELEMENT_SET_NO,REV_AT_EPOCH,BSTAR,MEAN_MOTION_DOT,MEAN_MOTION_DDOT
STARLINK-38047,2026-150G,2026-07-13T11:54:48.332736,15.80918891,.0001323,97.2822,32.7730,107.7417,252.3995,0,U,69745,999,305,.14028E-2,.27862E-2,0
STARLINK-38046,2026-150H,2026-07-13T11:52:02.310816,15.80930417,.0001371,97.2834,32.7772,109.3815,250.7601,0,U,69746,999,305,.14817E-2,.295023E-2,0
STARLINK-38067,2026-150J,2026-07-13T12:00:00.998784,15.75168926,.0001171,97.2832,32.7630,72.7118,270.4304,0,U,69747,999,302,-.10783E-4,-.1736E-4,0
STARLINK-37988,2026-150K,2026-07-13T12:00:00.998784,15.75148137,.0001167,97.2834,32.7672,78.7742,274.3722,0,U,69748,999,302,.21729E-3,.32344E-3,0
STARLINK-37987,2026-150L,2026-07-13T12:00:00.998784,15.75168916,.0001452,97.2838,32.7784,86.5095,290.6298,0,U,69749,999,302,.19509E-4,.2778E-4,0
STARLINK-38037,2026-150M,2026-07-13T11:45:27.258912,15.80915512,.0001595,97.2837,32.7825,108.6358,251.5083,0,U,69750,999,305,.12773E-2,.2529E-2,0
STARLINK-38049,2026-150N,2026-07-13T11:43:59.302848,15.80919611,.0001964,97.2841,32.7852,106.3523,253.7961,0,U,69751,999,305,.12801E-2,.253516E-2,0
STARLINK-38029,2026-150P,2026-07-13T11:35:42.448416,15.80912072,.0001559,97.2837,32.7916,99.9937,260.1507,0,U,69752,999,305,.11975E-2,.236596E-2,0
STARLINK-37965,2026-150Q,2026-07-13T12:00:00.998784,15.75202608,.0001242,97.2844,32.8023,87.9983,345.1373,0,U,69753,999,302,-.42668E-3,-.63336E-3,0
STARLINK-38048,2026-150R,2026-07-13T11:35:10.477824,15.80899314,.0000995,97.2832,32.7919,102.0727,258.0653,0,U,69754,999,305,.11901E-2,.234963E-2,0
STARLINK-38006,2026-150S,2026-07-13T11:31:14.401920,15.80863898,.0000953,97.2840,32.7962,131.1256,229.0095,0,U,69755,999,305,.12634E-2,.249447E-2,0
STARLINK-38036,2026-150T,2026-07-13T13:00:25.833024,15.80786479,.0000617,97.2845,32.8663,124.4224,235.7102,0,U,69756,999,306,.55228E-3,.106803E-2,0
STARLINK-38058,2026-150U,2026-07-13T13:00:03.952224,15.80801549,.0001596,97.2834,32.8655,357.7901,2.3360,0,U,69757,999,306,.81467E-3,.158674E-2,0
STARLINK-38066,2026-150V,2026-07-13T11:28:41.676960,15.80818002,.0001509,97.2842,32.7995,97.9953,262.1487,0,U,69758,999,305,.49477E-3,.95685E-3,0
STARLINK-38035,2026-150W,2026-07-13T12:59:40.416000,15.80792622,.0000375,97.2844,32.8667,44.9028,315.2271,0,U,69759,999,306,.65228E-3,.126491E-2,0
STARLINK-38056,2026-150X,2026-07-13T12:54:41.529024,15.80795249,.0001081,97.2833,32.8707,84.3118,275.8274,0,U,69760,999,306,.60778E-3,.117746E-2,0
STARLINK-38069,2026-150Y,2026-07-13T12:00:00.998784,15.80770654,.0001435,97.2840,32.8414,80.0875,83.7873,0,U,69761,999,302,.50712E-3,.97889E-3,0
STARLINK-38019,2026-150Z,2026-07-13T12:00:00.998784,15.75170283,.0000554,97.2840,32.8265,74.7353,54.3891,0,U,69762,999,302,-.62482E-5,-.106E-4,0
KUIPER-00258,2026-151A,2026-07-13T10:40:08.051232,15.35410069,.001228,51.8672,188.9959,164.5620,195.5743,0,U,69763,999,174,-.18165E-3,-.6745E-4,0
KUIPER-00526,2026-151B,2026-07-13T11:55:28.976160,15.37297052,.0005901,51.8750,188.6050,128.1674,231.9845,0,U,69764,999,175,.26423E-3,.9431E-4,0
KUIPER-00558,2026-151C,2026-07-13T12:00:29.344032,15.36790663,.0007673,51.8752,188.6240,144.8046,215.3448,0,U,69765,999,175,.29371E-3,.10356E-3,0
KUIPER-00569,2026-151D,2026-07-13T11:53:33.799776,15.37450310,.0005229,51.8782,188.5906,131.9238,228.2195,0,U,69766,999,175,.27973E-3,.10058E-3,0
KUIPER-00589,2026-151E,2026-07-13T11:54:28.706976,15.37391512,.0005395,51.8742,188.6002,134.0083,226.1349,0,U,69767,999,175,.30021E-3,.10803E-3,0
KUIPER-00598,2026-151F,2026-07-13T12:12:35.091936,15.35703367,.0008379,51.8636,188.6781,166.2010,193.9206,0,U,69768,999,175,.83296E-2,.305674E-2,0
KUIPER-00604,2026-151G,2026-07-13T11:45:49.543200,15.38214054,.0002886,51.8785,188.5565,96.6811,263.4504,0,U,69769,999,175,.26981E-3,.9936E-4,0
KUIPER-00609,2026-151H,2026-07-13T11:41:25.141056,15.38611454,.0001434,51.8785,188.5360,45.0706,315.0397,0,U,69770,999,175,.30961E-3,.11615E-3,0
KUIPER-00611,2026-151J,2026-07-13T11:43:35.594688,15.38423494,.0001748,51.8789,188.5427,96.6626,263.4560,0,U,69771,999,175,.43944E-3,.16559E-3,0
KUIPER-00612,2026-151K,2026-07-13T11:48:56.207808,15.37914868,.0003817,51.8779,188.5727,105.4965,254.6444,0,U,69772,999,175,.25797E-3,.9387E-4,0
KUIPER-00614,2026-151L,2026-07-13T11:46:43.322880,15.38128676,.0002801,51.8797,188.5573,123.8762,236.2492,0,U,69773,999,175,.26445E-3,.9702E-4,0
KUIPER-00615,2026-151M,2026-07-13T11:56:25.429920,15.37209069,.0006257,51.8771,188.6041,141.8330,218.3101,0,U,69774,999,175,.28723E-3,.10257E-3,0
